[{"OBJECT_NAME":"STARLINK-36816","OBJECT_ID":"2026-035N","EPOCH":"2026-03-07T14:00:01.000224","MEAN_MOTION":15.93224979,"ECCENTRICITY":0.00014406,"INCLINATION":97.27,"RA_OF_ASC_NODE":358.8031,"ARG_OF_PERICENTER":86.2142,"MEAN_ANOMALY":40.2273,"EPHEMERIS_TYPE":0,"CLASSIFICATION_TYPE":"U","NORAD_CAT_ID":67891,"ELEMENT_SET_NO":999,"REV_AT_EPOCH":331,"BSTAR":-0.0039939294,"MEAN_MOTION_DOT":-0.01392895,"MEAN_MOTION_DDOT":0.00056306476},{"OBJECT_NAME":"STARLINK-36813","OBJECT_ID":"2026-035P","EPOCH":"2026-03-07T14:00:01.000224","MEAN_MOTION":15.93083706,"ECCENTRICITY":0.0001345,"INCLINATION":97.2688,"RA_OF_ASC_NODE":358.7908,"ARG_OF_PERICENTER":87.3642,"MEAN_ANOMALY":10.2596,"EPHEMERIS_TYPE":0,"CLASSIFICATION_TYPE":"U","NORAD_CAT_ID":67892,"ELEMENT_SET_NO":999,"REV_AT_EPOCH":341,"BSTAR":-0.0039331074,"MEAN_MOTION_DOT":-0.01361937,"MEAN_MOTION_DDOT":0.00053935286},{"OBJECT_NAME":"STARLINK-36803","OBJECT_ID":"2026-035Q","EPOCH":"2026-03-07T14:00:01.000224","MEAN_MOTION":15.92871018,"ECCENTRICITY":0.00013232,"INCLINATION":97.2709,"RA_OF_ASC_NODE":358.7803,"ARG_OF_PERICENTER":95.3835,"MEAN_ANOMALY":332.1623,"EPHEMERIS_TYPE":0,"CLASSIFICATION_TYPE":"U","NORAD_CAT_ID":67893,"ELEMENT_SET_NO":999,"REV_AT_EPOCH":341,"BSTAR":-0.0034087332,"MEAN_MOTION_DOT":-0.01169074,"MEAN_MOTION_DDOT":0.00040569011},{"OBJECT_NAME":"STARLINK-36846","OBJECT_ID":"2026-035R","EPOCH":"2026-03-07T14:00:01.000224","MEAN_MOTION":15.92953759,"ECCENTRICITY":0.00012783,"INCLINATION":97.2704,"RA_OF_ASC_NODE":358.7846,"ARG_OF_PERICENTER":95.7233,"MEAN_ANOMALY":342.5221,"EPHEMERIS_TYPE":0,"CLASSIFICATION_TYPE":"U","NORAD_CAT_ID":67894,"ELEMENT_SET_NO":999,"REV_AT_EPOCH":341,"BSTAR":-0.0035820893,"MEAN_MOTION_DOT":-0.0123322,"MEAN_MOTION_DDOT":0.00044824358},{"OBJECT_NAME":"STARLINK-36866","OBJECT_ID":"2026-035S","EPOCH":"2026-03-07T14:00:01.000224","MEAN_MOTION":15.930151,"ECCENTRICITY":0.00013155,"INCLINATION":97.2703,"RA_OF_ASC_NODE":358.7866,"ARG_OF_PERICENTER":80.2808,"MEAN_ANOMALY":2.7665,"EPHEMERIS_TYPE":0,"CLASSIFICATION_TYPE":"U","NORAD_CAT_ID":67895,"ELEMENT_SET_NO":999,"REV_AT_EPOCH":341,"BSTAR":-0.0037717676,"MEAN_MOTION_DOT":-0.01302002,"MEAN_MOTION_DDOT":0.00049591712},{"OBJECT_NAME":"STARLINK-36877","OBJECT_ID":"2026-035T","EPOCH":"2026-03-07T14:00:01.000224","MEAN_MOTION":15.92902584,"ECCENTRICITY":0.00012491,"INCLINATION":97.2704,"RA_OF_ASC_NODE":358.7823,"ARG_OF_PERICENTER":86.0556,"MEAN_ANOMALY":347.0174,"EPHEMERIS_TYPE":0,"CLASSIFICATION_TYPE":"U","NORAD_CAT_ID":67896,"ELEMENT_SET_NO":999,"REV_AT_EPOCH":341,"BSTAR":-0.0034498316,"MEAN_MOTION_DOT":-0.01184958,"MEAN_MOTION_DDOT":0.00041609376},{"OBJECT_NAME":"STARLINK-36870","OBJECT_ID":"2026-035U","EPOCH":"2026-03-07T14:00:01.000224","MEAN_MOTION":15.93033176,"ECCENTRICITY":0.00014024,"INCLINATION":97.2699,"RA_OF_ASC_NODE":358.7883,"ARG_OF_PERICENTER":91.8115,"MEAN_ANOMALY":356.5974,"EPHEMERIS_TYPE":0,"CLASSIFICATION_TYPE":"U","NORAD_CAT_ID":67897,"ELEMENT_SET_NO":999,"REV_AT_EPOCH":341,"BSTAR":-0.0038901522,"MEAN_MOTION_DOT":-0.01343724,"MEAN_MOTION_DDOT":0.00052581351},{"OBJECT_NAME":"STARLINK-36810","OBJECT_ID":"2026-035V","EPOCH":"2026-03-07T14:00:01.000224","MEAN_MOTION":15.93057548,"ECCENTRICITY":0.00013562,"INCLINATION":97.2697,"RA_OF_ASC_NODE":358.79,"ARG_OF_PERICENTER":89.6673,"MEAN_ANOMALY":3.2218,"EPHEMERIS_TYPE":0,"CLASSIFICATION_TYPE":"U","NORAD_CAT_ID":67898,"ELEMENT_SET_NO":999,"REV_AT_EPOCH":341,"BSTAR":-0.0038826785,"MEAN_MOTION_DOT":-0.01342842,"MEAN_MOTION_DDOT":0.00052530562},{"OBJECT_NAME":"STARLINK-36878","OBJECT_ID":"2026-035W","EPOCH":"2026-03-07T14:00:01.000224","MEAN_MOTION":15.93126835,"ECCENTRICITY":0.00014762,"INCLINATION":97.2695,"RA_OF_ASC_NODE":358.7937,"ARG_OF_PERICENTER":94.7274,"MEAN_ANOMALY":7.0656,"EPHEMERIS_TYPE":0,"CLASSIFICATION_TYPE":"U","NORAD_CAT_ID":67899,"ELEMENT_SET_NO":999,"REV_AT_EPOCH":341,"BSTAR":-0.0039384487,"MEAN_MOTION_DOT":-0.01366822,"MEAN_MOTION_DDOT":0.00054317397},{"OBJECT_NAME":"STARLINK-36361","OBJECT_ID":"2026-035X","EPOCH":"2026-03-07T14:00:01.000224","MEAN_MOTION":15.93146833,"ECCENTRICITY":0.00014334,"INCLINATION":97.2696,"RA_OF_ASC_NODE":358.7957,"ARG_OF_PERICENTER":94.4163,"MEAN_ANOMALY":12.1442,"EPHEMERIS_TYPE":0,"CLASSIFICATION_TYPE":"U","NORAD_CAT_ID":67900,"ELEMENT_SET_NO":999,"REV_AT_EPOCH":341,"BSTAR":-0.0039383692,"MEAN_MOTION_DOT":-0.01368195,"MEAN_MOTION_DDOT":0.00054429425},{"OBJECT_NAME":"STARLINK-36336","OBJECT_ID":"2026-035Y","EPOCH":"2026-03-07T14:00:01.000224","MEAN_MOTION":15.93217307,"ECCENTRICITY":0.0001446,"INCLINATION":97.2706,"RA_OF_ASC_NODE":358.8026,"ARG_OF_PERICENTER":91.1471,"MEAN_ANOMALY":29.877,"EPHEMERIS_TYPE":0,"CLASSIFICATION_TYPE":"U","NORAD_CAT_ID":67901,"ELEMENT_SET_NO":999,"REV_AT_EPOCH":346,"BSTAR":-0.0039564868,"MEAN_MOTION_DOT":-0.01379426,"MEAN_MOTION_DDOT":0.00055298719},{"OBJECT_NAME":"STARLINK-36876","OBJECT_ID":"2026-035Z","EPOCH":"2026-03-07T14:00:01.000224","MEAN_MOTION":15.93185791,"ECCENTRICITY":0.00014328,"INCLINATION":97.2703,"RA_OF_ASC_NODE":358.7988,"ARG_OF_PERICENTER":93.9635,"MEAN_ANOMALY":16.9088,"EPHEMERIS_TYPE":0,"CLASSIFICATION_TYPE":"U","NORAD_CAT_ID":67902,"ELEMENT_SET_NO":999,"REV_AT_EPOCH":341,"BSTAR":-0.0039439112,"MEAN_MOTION_DOT":-0.01372853,"MEAN_MOTION_DDOT":0.00054794477},{"OBJECT_NAME":"STARLINK-36257","OBJECT_ID":"2026-035AA","EPOCH":"2026-03-07T14:00:01.000224","MEAN_MOTION":15.93224882,"ECCENTRICITY":0.00013009,"INCLINATION":97.2701,"RA_OF_ASC_NODE":358.7995,"ARG_OF_PERICENTER":88.0205,"MEAN_ANOMALY":27.3233,"EPHEMERIS_TYPE":0,"CLASSIFICATION_TYPE":"U","NORAD_CAT_ID":67903,"ELEMENT_SET_NO":999,"REV_AT_EPOCH":346,"BSTAR":-0.0039691192,"MEAN_MOTION_DOT":-0.01384299,"MEAN_MOTION_DDOT":0.00055665063},{"OBJECT_NAME":"STARLINK-36814","OBJECT_ID":"2026-036A","EPOCH":"2026-03-07T13:34:03.088128","MEAN_MOTION":15.82105663,"ECCENTRICITY":0.00019948,"INCLINATION":42.9979,"RA_OF_ASC_NODE":262.828,"ARG_OF_PERICENTER":256.9761,"MEAN_ANOMALY":103.0888,"EPHEMERIS_TYPE":0,"CLASSIFICATION_TYPE":"U","NORAD_CAT_ID":67904,"ELEMENT_SET_NO":999,"REV_AT_EPOCH":333,"BSTAR":0.0015668645,"MEAN_MOTION_DOT":0.00344296,"MEAN_MOTION_DDOT":0},{"OBJECT_NAME":"STARLINK-36729","OBJECT_ID":"2026-036B","EPOCH":"2026-03-07T13:32:58.307136","MEAN_MOTION":15.82163785,"ECCENTRICITY":0.00012394,"INCLINATION":42.9982,"RA_OF_ASC_NODE":262.8213,"ARG_OF_PERICENTER":266.5131,"MEAN_ANOMALY":93.5599,"EPHEMERIS_TYPE":0,"CLASSIFICATION_TYPE":"U","NORAD_CAT_ID":67905,"ELEMENT_SET_NO":999,"REV_AT_EPOCH":333,"BSTAR":0.0014835424,"MEAN_MOTION_DOT":0.00326154,"MEAN_MOTION_DDOT":0},{"OBJECT_NAME":"STARLINK-36763","OBJECT_ID":"2026-036C","EPOCH":"2026-03-07T13:31:53.782752","MEAN_MOTION":15.82096,"ECCENTRICITY":0.0001836,"INCLINATION":42.9987,"RA_OF_ASC_NODE":262.8155,"ARG_OF_PERICENTER":268.6652,"MEAN_ANOMALY":91.401,"EPHEMERIS_TYPE":0,"CLASSIFICATION_TYPE":"U","NORAD_CAT_ID":67906,"ELEMENT_SET_NO":999,"REV_AT_EPOCH":333,"BSTAR":0.0019313654,"MEAN_MOTION_DOT":0.00428531,"MEAN_MOTION_DDOT":0}]
